[{"OBJECT_NAME":"ONEWEB-0164","OBJECT_ID":"2021-025X","EPOCH":"2026-06-20T03:26:16.729152","MEAN_MOTION":13.1347018,"ECCENTRICITY":0.0001772,"INCLINATION":87.8968,"RA_OF_ASC_NODE":319.632,"ARG_OF_PERICENTER":96.8069,"MEAN_ANOMALY":263.3262,"EPHEMERIS_TYPE":0,"CLASSIFICATION_TYPE":"U","NORAD_CAT_ID":48063,"ELEMENT_SET_NO":999,"REV_AT_EPOCH":25397,"BSTAR":-0.00098688,"MEAN_MOTION_DOT":-3.48e-06,"MEAN_MOTION_DDOT":0.0},{"OBJECT_NAME":"ONEWEB-0167","OBJECT_ID":"2021-025Y","EPOCH":"2026-06-19T22:37:24.866688","MEAN_MOTION":13.13468605,"ECCENTRICITY":0.0001848,"INCLINATION":87.8955,"RA_OF_ASC_NODE":319.6815,"ARG_OF_PERICENTER":118.4168,"MEAN_ANOMALY":241.7147,"EPHEMERIS_TYPE":0,"CLASSIFICATION_TYPE":"U","NORAD_CAT_ID":48064,"ELEMENT_SET_NO":999,"REV_AT_EPOCH":25393,"BSTAR":0.00091556,"MEAN_MOTION_DOT":3.47e-06,"MEAN_MOTION_DDOT":0.0},{"OBJECT_NAME":"ONEWEB-0166","OBJECT_ID":"2021-025Z","EPOCH":"2026-06-20T02:49:43.764960","MEAN_MOTION":13.13463842,"ECCENTRICITY":0.0001997,"INCLINATION":87.8968,"RA_OF_ASC_NODE":319.6182,"ARG_OF_PERICENTER":97.4032,"MEAN_ANOMALY":262.7324,"EPHEMERIS_TYPE":0,"CLASSIFICATION_TYPE":"U","NORAD_CAT_ID":48065,"ELEMENT_SET_NO":999,"REV_AT_EPOCH":25403,"BSTAR":0.0028291,"MEAN_MOTION_DOT":1.046e-05,"MEAN_MOTION_DDOT":0.0},{"OBJECT_NAME":"ONEWEB-0151","OBJECT_ID":"2021-025AA","EPOCH":"2026-06-20T02:52:08.664672","MEAN_MOTION":13.13469911,"ECCENTRICITY":0.0001765,"INCLINATION":87.8959,"RA_OF_ASC_NODE":319.6346,"ARG_OF_PERICENTER":100.9541,"MEAN_ANOMALY":259.1787,"EPHEMERIS_TYPE":0,"CLASSIFICATION_TYPE":"U","NORAD_CAT_ID":48066,"ELEMENT_SET_NO":999,"REV_AT_EPOCH":25397,"BSTAR":-0.00039946,"MEAN_MOTION_DOT":-1.33e-06,"MEAN_MOTION_DDOT":0.0},{"OBJECT_NAME":"ONEWEB-0170","OBJECT_ID":"2021-025AB","EPOCH":"2026-06-20T03:04:20.220384","MEAN_MOTION":13.13469922,"ECCENTRICITY":0.0001392,"INCLINATION":87.8961,"RA_OF_ASC_NODE":319.6347,"ARG_OF_PERICENTER":99.9209,"MEAN_ANOMALY":260.2077,"EPHEMERIS_TYPE":0,"CLASSIFICATION_TYPE":"U","NORAD_CAT_ID":48067,"ELEMENT_SET_NO":999,"REV_AT_EPOCH":25393,"BSTAR":-0.0008371100000000001,"MEAN_MOTION_DOT":-2.93e-06,"MEAN_MOTION_DDOT":0.0},{"OBJECT_NAME":"ONEWEB-0168","OBJECT_ID":"2021-025AC","EPOCH":"2026-06-19T23:03:00.622368","MEAN_MOTION":13.13469952,"ECCENTRICITY":0.0002019,"INCLINATION":87.8964,"RA_OF_ASC_NODE":319.6681,"ARG_OF_PERICENTER":100.9791,"MEAN_ANOMALY":259.1565,"EPHEMERIS_TYPE":0,"CLASSIFICATION_TYPE":"U","NORAD_CAT_ID":48068,"ELEMENT_SET_NO":999,"REV_AT_EPOCH":25392,"BSTAR":2.7647e-05,"MEAN_MOTION_DOT":2.3e-07,"MEAN_MOTION_DDOT":0.0},{"OBJECT_NAME":"ONEWEB-0173","OBJECT_ID":"2021-025AD","EPOCH":"2026-06-19T22:50:49.617024","MEAN_MOTION":13.13469944,"ECCENTRICITY":0.0002007,"INCLINATION":87.8958,"RA_OF_ASC_NODE":319.6716,"ARG_OF_PERICENTER":107.7534,"MEAN_ANOMALY":252.3815,"EPHEMERIS_TYPE":0,"CLASSIFICATION_TYPE":"U","NORAD_CAT_ID":48069,"ELEMENT_SET_NO":999,"REV_AT_EPOCH":25416,"BSTAR":0.00054294,"MEAN_MOTION_DOT":2.11e-06,"MEAN_MOTION_DDOT":0.0},{"OBJECT_NAME":"ONEWEB-0171","OBJECT_ID":"2021-025AE","EPOCH":"2026-06-20T03:23:50.379648","MEAN_MOTION":13.13470739,"ECCENTRICITY":0.0001742,"INCLINATION":87.8956,"RA_OF_ASC_NODE":319.6417,"ARG_OF_PERICENTER":99.8261,"MEAN_ANOMALY":260.3065,"EPHEMERIS_TYPE":0,"CLASSIFICATION_TYPE":"U","NORAD_CAT_ID":48070,"ELEMENT_SET_NO":999,"REV_AT_EPOCH":25400,"BSTAR":-0.00037933,"MEAN_MOTION_DOT":-1.26e-06,"MEAN_MOTION_DDOT":0.0},{"OBJECT_NAME":"ONEWEB-0172","OBJECT_ID":"2021-025AF","EPOCH":"2026-06-19T23:15:11.294208","MEAN_MOTION":13.13468564,"ECCENTRICITY":0.0001832,"INCLINATION":87.8961,"RA_OF_ASC_NODE":319.6662,"ARG_OF_PERICENTER":102.9655,"MEAN_ANOMALY":257.1679,"EPHEMERIS_TYPE":0,"CLASSIFICATION_TYPE":"U","NORAD_CAT_ID":48071,"ELEMENT_SET_NO":999,"REV_AT_EPOCH":25487,"BSTAR":-0.0005223100000000001,"MEAN_MOTION_DOT":-1.78e-06,"MEAN_MOTION_DDOT":0.0},{"OBJECT_NAME":"ONEWEB-0174","OBJECT_ID":"2021-025AG","EPOCH":"2026-06-19T22:48:23.866272","MEAN_MOTION":13.13469893,"ECCENTRICITY":0.0001999,"INCLINATION":87.8958,"RA_OF_ASC_NODE":319.6692,"ARG_OF_PERICENTER":96.2892,"MEAN_ANOMALY":263.8465,"EPHEMERIS_TYPE":0,"CLASSIFICATION_TYPE":"U","NORAD_CAT_ID":48072,"ELEMENT_SET_NO":999,"REV_AT_EPOCH":25419,"BSTAR":0.0004793,"MEAN_MOTION_DOT":1.88e-06,"MEAN_MOTION_DDOT":0.0},{"OBJECT_NAME":"ONEWEB-0175","OBJECT_ID":"2021-025AH","EPOCH":"2026-06-19T21:42:33.964992","MEAN_MOTION":13.13470946,"ECCENTRICITY":0.0001567,"INCLINATION":87.8962,"RA_OF_ASC_NODE":319.6628,"ARG_OF_PERICENTER":105.2637,"MEAN_ANOMALY":254.8666,"EPHEMERIS_TYPE":0,"CLASSIFICATION_TYPE":"U","NORAD_CAT_ID":48073,"ELEMENT_SET_NO":999,"REV_AT_EPOCH":25384,"BSTAR":-0.00060061,"MEAN_MOTION_DOT":-2.07e-06,"MEAN_MOTION_DDOT":0.0},{"OBJECT_NAME":"ONEWEB-0177","OBJECT_ID":"2021-025AJ","EPOCH":"2026-06-20T03:28:42.525696","MEAN_MOTION":13.13471256,"ECCENTRICITY":0.0002055,"INCLINATION":87.8968,"RA_OF_ASC_NODE":319.6325,"ARG_OF_PERICENTER":101.5248,"MEAN_ANOMALY":258.6112,"EPHEMERIS_TYPE":0,"CLASSIFICATION_TYPE":"U","NORAD_CAT_ID":48074,"ELEMENT_SET_NO":999,"REV_AT_EPOCH":25406,"BSTAR":-0.00046804,"MEAN_MOTION_DOT":-1.58e-06,"MEAN_MOTION_DDOT":0.0},{"OBJECT_NAME":"ONEWEB-0178","OBJECT_ID":"2021-025AK","EPOCH":"2026-06-20T03:55:43.987584","MEAN_MOTION":13.13468851,"ECCENTRICITY":0.0001771,"INCLINATION":87.8952,"RA_OF_ASC_NODE":319.6416,"ARG_OF_PERICENTER":106.7567,"MEAN_ANOMALY":253.3756,"EPHEMERIS_TYPE":0,"CLASSIFICATION_TYPE":"U","NORAD_CAT_ID":48075,"ELEMENT_SET_NO":999,"REV_AT_EPOCH":25411,"BSTAR":0.00098539,"MEAN_MOTION_DOT":3.73e-06,"MEAN_MOTION_DDOT":0.0},{"OBJECT_NAME":"ONEWEB-0108","OBJECT_ID":"2021-025AL","EPOCH":"2026-06-19T21:27:56.312064","MEAN_MOTION":13.13470065,"ECCENTRICITY":0.0001838,"INCLINATION":87.8966,"RA_OF_ASC_NODE":319.6746,"ARG_OF_PERICENTER":89.5983,"MEAN_ANOMALY":270.5357,"EPHEMERIS_TYPE":0,"CLASSIFICATION_TYPE":"U","NORAD_CAT_ID":48076,"ELEMENT_SET_NO":999,"REV_AT_EPOCH":25400,"BSTAR":-0.00045159,"MEAN_MOTION_DOT":-1.52e-06,"MEAN_MOTION_DDOT":0.0},{"OBJECT_NAME":"ONEWEB-0169","OBJECT_ID":"2021-025AM","EPOCH":"2026-06-20T03:43:20.795520","MEAN_MOTION":13.13470365,"ECCENTRICITY":0.0001945,"INCLINATION":87.8958,"RA_OF_ASC_NODE":319.6303,"ARG_OF_PERICENTER":96.6757,"MEAN_ANOMALY":263.4593,"EPHEMERIS_TYPE":0,"CLASSIFICATION_TYPE":"U","NORAD_CAT_ID":48077,"ELEMENT_SET_NO":999,"REV_AT_EPOCH":25269,"BSTAR":0.00049566,"MEAN_MOTION_DOT":1.94e-06,"MEAN_MOTION_DDOT":0.0},{"OBJECT_NAME":"ONEWEB-0176","OBJECT_ID":"2021-031A","EPOCH":"2026-06-20T07:11:44.465280","MEAN_MOTION":13.14503658,"ECCENTRICITY":0.0001916,"INCLINATION":87.8968,"RA_OF_ASC_NODE":289.0788,"ARG_OF_PERICENTER":104.219,"MEAN_ANOMALY":255.9153,"EPHEMERIS_TYPE":0,"CLASSIFICATION_TYPE":"U","NORAD_CAT_ID":48210,"ELEMENT_SET_NO":999,"REV_AT_EPOCH":24872,"BSTAR":0.00029273,"MEAN_MOTION_DOT":1.21e-06,"MEAN_MOTION_DDOT":0.0}]