ONEWEB-0164             
1 48063U 21025X   26171.14324918 -.00000348  00000+0 -98688-3 0  9998
2 48063  87.8968 319.6320 0001772  96.8069 263.3262 13.13470180253976
ONEWEB-0167             
1 48064U 21025Y   26170.94264892  .00000347  00000+0  91556-3 0  9994
2 48064  87.8955 319.6815 0001848 118.4168 241.7147 13.13468605253934
ONEWEB-0166             
1 48065U 21025Z   26171.11786765  .00001046  00000+0  28291-2 0  9995
2 48065  87.8968 319.6182 0001997  97.4032 262.7324 13.13463842254037
ONEWEB-0151             
1 48066U 21025AA  26171.11954473 -.00000133  00000+0 -39946-3 0  9997
2 48066  87.8959 319.6346 0001765 100.9541 259.1787 13.13469911253976
ONEWEB-0170             
1 48067U 21025AB  26171.12801181 -.00000293  00000+0 -83711-3 0  9992
2 48067  87.8961 319.6347 0001392  99.9209 260.2077 13.13469922253938
ONEWEB-0168             
1 48068U 21025AC  26170.96042387  .00000023  00000+0  27647-4 0  9995
2 48068  87.8964 319.6681 0002019 100.9791 259.1565 13.13469952253920
ONEWEB-0173             
1 48069U 21025AD  26170.95196316  .00000211  00000+0  54294-3 0  9993
2 48069  87.8958 319.6716 0002007 107.7534 252.3815 13.13469944254161
ONEWEB-0171             
1 48070U 21025AE  26171.14155532 -.00000126  00000+0 -37933-3 0  9990
2 48070  87.8956 319.6417 0001742  99.8261 260.3065 13.13470739254005
ONEWEB-0172             
1 48071U 21025AF  26170.96888072 -.00000178  00000+0 -52231-3 0  9997
2 48071  87.8961 319.6662 0001832 102.9655 257.1679 13.13468564254870
ONEWEB-0174             
1 48072U 21025AG  26170.95027623  .00000188  00000+0  47930-3 0  9993
2 48072  87.8958 319.6692 0001999  96.2892 263.8465 13.13469893254190
ONEWEB-0175             
1 48073U 21025AH  26170.90455978 -.00000207  00000+0 -60061-3 0  9991
2 48073  87.8962 319.6628 0001567 105.2637 254.8666 13.13470946253849
ONEWEB-0177             
1 48074U 21025AJ  26171.14493664 -.00000158  00000+0 -46804-3 0  9997
2 48074  87.8968 319.6325 0002055 101.5248 258.6112 13.13471256254068
ONEWEB-0178             
1 48075U 21025AK  26171.16370356  .00000373  00000+0  98539-3 0  9991
2 48075  87.8952 319.6416 0001771 106.7567 253.3756 13.13468851254117
ONEWEB-0108             
1 48076U 21025AL  26170.89440176 -.00000152  00000+0 -45159-3 0  9996
2 48076  87.8966 319.6746 0001838  89.5983 270.5357 13.13470065254009
ONEWEB-0169             
1 48077U 21025AM  26171.15510180  .00000194  00000+0  49566-3 0  9990
2 48077  87.8958 319.6303 0001945  96.6757 263.4593 13.13470365252696
ONEWEB-0176             
1 48210U 21031A   26171.29982020  .00000121  00000+0  29273-3 0  9990
2 48210  87.8968 289.0788 0001916 104.2190 255.9153 13.14503658248728
